C/2018 A6 (Gibbs),e,77.0564,340.3810,264.3982,15.10915,0.0167820,0.80028757,16.7905,04/08.0/2022,2000,g  9.0,4.0
# From MPC118841
C/2018 B1 (Lemmon),e,162.4204,133.1904,68.3539,10274,0.0000009,0.99950129,0.0000,03/28.4118/2018,2000,g  9.0,4.0
# From MPC114601
P/2018 C1 (Lemmon-Read),e,5.1143,270.3537,235.7070,5.653568,0.0733196,0.53216071,110.2633,04/08.0/2022,2000,g 13.5,4.0
# From MPC114601
C/2018 C2 (Lemmon),h,05/31.9136/2018,34.4624,91.1962,134.0755,1.000293,1.960382,2000,13.0,4.0
# From MPEC 2021-U31
C/2018 DO4 (Lemmon),e,160.4500,251.3963,176.2644,25.42627,0.0076874,0.90514797,7.4153,04/08.0/2022,2000,g 11.0,4.0
# From MPC114602
C/2018 E1 (ATLAS),e,72.5139,146.8621,299.3220,53.86285,0.0024933,0.94994207,3.6185,04/08.0/2022,2000,g 10.5,4.0
# From MPC114602
C/2018 E2 (Barros),e,97.6549,67.1715,277.4471,3540,0.0000047,0.99889294,0.0000,12/23.9223/2017,2000,g 10.5,4.0
# From MPC114602
C/2018 EN4 (NEOWISE),e,81.9273,136.1281,35.0633,18.00496,0.0129008,0.91886271,18.1201,04/08.0/2022,2000,g 15.0,4.0
# From MPC114602
C/2018 EF9 (Lemmon),e,84.6168,172.5536,72.6239,485.2438,0.0000922,0.99678572,0.0000,05/21.9776/2018,2000,g 18.0,2.0
# From MPEC 2021-R75
C/2018 F1 (Grauer),e,46.0776,177.2756,71.6082,255.4192,0.0002414,0.98827077,0.0000,12/12.8590/2018,2000,g 11.5,4.0
# From MPC110084
C/2018 F3 (Johnson),p,08/15.2314/2017,105.5348,293.0113,2.483172,173.0311,2000,13.0,4.0
# From MPEC 2021-W31
C/2018 F4 (PANSTARRS),h,12/03.8177/2019,78.0862,26.5157,263.2300,1.000549,3.441934,2000,11.0,6.0
# From MPEC 2021-Y10
C/2018 F4-A,h,12/03.8059/2019,78.0864,26.5159,263.2268,1.000497,3.441802,2000,11.0,6.0
# From MPEC 2021-W31
C/2018 F4-B,h,12/03.7422/2019,78.0872,26.5155,263.2118,1.000593,3.441585,2000,11.0,6.0
# From MPC114602
P/2018 H2 (PANSTARRS),e,7.3964,68.2059,119.9608,4.386234,0.1072918,0.54123176,164.9786,04/08.0/2022,2000,g 16.6,2.0
# From MPC114602
C/2018 K1 (Weiland),e,164.1923,260.1177,325.1922,30.14075,0.0059563,0.93752998,8.7065,04/08.0/2022,2000,g 14.9,4.0
# From MPEC 2021-R75
C/2018 KJ3 (Lemmon),e,136.6940,91.6283,217.6781,949.9941,0.0000337,0.99617955,0.0000,09/09.9090/2019,2000,g 12.2,2.0
# From MPC114602
P/2018 L1 (PANSTARRS),e,10.5852,268.6279,18.0281,3.652580,0.1411902,0.48229968,175.4586,04/08.0/2022,2000,g 15.0,4.0
# From MPEC 2021-P47
C/2018 L2 (ATLAS),e,67.3156,243.0146,56.3051,261.2030,0.0002335,0.99343644,0.0000,12/02.5649/2018,2000,g 10.0,4.0
# From MPC114603
P/2018 L4 (PANSTARRS),e,26.6243,145.1563,140.6160,4.943712,0.0896653,0.65959813,120.7372,04/08.0/2022,2000,g 17.5,4.0
# From MPC119996
P/2018 L5 (Leonard),e,2.2082,219.0716,93.9142,3.628581,0.1425932,0.36453152,204.4096,04/08.0/2022,2000,g 14.5,4.0
# From MPC117070
C/2018 M1 (Catalina),e,37.3009,339.4092,14.2065,21.44449,0.0099250,0.93922043,13.5706,04/08.0/2022,2000,g 15.5,4.0
# From MPC112393
C/2018 N1 (NEOWISE),e,159.4301,292.4867,354.6989,378.8190,0.0001337,0.99654017,0.0000,08/02.3210/2018,2000,g 15.5,4.0
# From MPEC 2022-GA9
C/2018 N2 (ASASSN),h,11/11.1088/2019,77.5422,25.2174,24.4384,1.000475,3.125894,2000,6.0,4.0
# From MPC114603
C/2018 O1 (ATLAS),e,154.0211,87.7167,162.6682,28.04356,0.0066367,0.94435842,8.7273,04/08.0/2022,2000,g 17.0,4.0
# From MPC114603
P/2018 P3 (PANSTARRS),e,8.9122,59.1629,305.9299,3.005045,0.1892028,0.41694315,241.2851,04/08.0/2022,2000,g 14.5,4.0
# From MPC114603
P/2018 P4 (PANSTARRS),e,23.1099,353.0613,8.3401,6.679364,0.0570954,0.45066810,71.1575,04/08.0/2022,2000,g 12.0,4.0
# From MPEC 2021-P47
C/2018 P5 (PANSTARRS),e,7.2489,216.2182,131.8578,12.82882,0.0214498,0.64285610,24.3501,04/08.0/2022,2000,g 11.0,4.0
# From MPC118841
C/2018 R3 (Lemmon),e,69.7263,324.6323,112.7708,1562,0.0000160,0.99917685,0.0000,06/07.4779/2019,2000,g  9.5,4.0
# From MPC112393
C/2018 R4 (Fuls),e,11.6781,298.4828,345.3194,336.7812,0.0001595,0.99489455,0.0000,03/03.1856/2018,2000,g 14.0,4.0
# From MPC114603
C/2018 R5 (Lemmon),e,103.7499,171.1134,178.1274,22.83494,0.0090324,0.84113129,10.6933,04/08.0/2022,2000,g 11.5,4.0
# From MPEC 2022-F14
C/2018 U1 (Lemmon),h,11/03.1416/2021,108.3035,75.4811,180.4719,1.001457,4.993020,2000,5.0,4.0
# From MPC114604
C/2018 V1 (Machholz-Fujikawa-Iwamoto),h,12/02.9392/2018,144.0681,128.9381,88.9521,1.000333,0.388448,2000,12.0,4.0
# From MPC115884
C/2018 V2 (ATLAS),e,159.1676,357.0791,318.9596,25.03911,0.0078664,0.90094040,9.6699,04/08.0/2022,2000,g 15.0,4.0
# From MPC114604
P/2018 VN2 (Leonard),e,18.2572,226.4726,138.8009,4.064203,0.1202932,0.47884304,168.5839,04/08.0/2022,2000,g 15.0,4.0
# From MPEC 2021-P47
A/2018 V3,e,164.9742,308.6700,3.5767,125.3487,0.0007023,0.98929814,0.0000,09/08.8423/2019,2000,g 15.7,2.0
# From MPC114604
C/2018 V4 (Africano),e,69.0134,78.3222,359.9265,203.7905,0.0003388,0.98432031,0.0000,03/01.3877/2019,2000,g 12.5,4.0
# From MPEC 2021-P47
P/2018 V5 (Trujillo-Sheppard),e,10.5887,171.2866,260.6555,8.956263,0.0367717,0.47510577,47.1772,04/08.0/2022,2000,g 12.5,4.0
# From MPEC 2021-P47
C/2018 W1 (Catalina),e,83.3251,233.6254,251.2314,21.67658,0.0097660,0.93724998,10.3747,04/08.0/2022,2000,g 15.5,2.0
# From MPEC 2021-P47
C/2018 W2 (Africano),h,09/05.4557/2019,116.6246,181.8213,158.0119,1.000438,1.457696,2000,9.5,4.0
# From MPC119996
C/2018 X2 (Fitzsimmons),e,23.0694,340.8300,161.9960,142.0454,0.0005822,0.98504335,0.0000,07/08.2030/2019,2000,g 12.0,4.0
# From MPC114604
C/2018 X3 (PANSTARRS),e,43.3871,78.8658,359.7324,12.36968,0.0226551,0.78227698,27.0564,04/08.0/2022,2000,g 14.5,4.0
# From MPC118842
C/2018 Y1 (Iwamoto),e,160.4005,147.5096,357.9655,134.8193,0.0006296,0.99047784,0.0000,02/06.5978/2019,2000,g 11.5,4.0
# From MPC114605
P/2018 Y2 (Africano),e,11.6825,297.2429,162.2664,7.455773,0.0484133,0.47880524,57.7351,04/08.0/2022,2000,g 11.5,4.0
# From MPC114605
P/2019 A1 (PANSTARRS),e,13.7458,312.2908,150.7254,5.118934,0.0851010,0.56859345,108.5380,04/08.0/2022,2000,g 16.0,4.0
# From MPEC 2021-P47
P/2019 A2 (ATLAS),e,14.8599,139.4665,323.9154,5.717320,0.0720967,0.38160051,89.0305,04/08.0/2022,2000,g 10.5,4.0
# From MPEC 2021-P47
P/2019 A3 (PANSTARRS),e,15.3732,31.2918,325.5680,3.145701,0.1766558,0.26597063,237.3456,04/08.0/2022,2000,g 16.0,4.0
# From MPC114605
P/2019 A4 (PANSTARRS),e,13.3064,119.2573,342.5932,2.614499,0.2331424,0.08723678,283.5877,04/08.0/2022,2000,g 15.0,4.0
# From MPEC 2021-P47
C/2019 A5 (PANSTARRS),e,67.5581,146.6253,355.8770,21.52610,0.0098686,0.70644910,10.2193,04/08.0/2022,2000,g  9.5,4.0
# From MPC114605
P/2019 A6 (Lemmon-PANSTARRS),e,33.2438,280.2353,156.1784,5.359339,0.0794396,0.63941541,104.6682,04/08.0/2022,2000,g 16.0,4.0
# From MPC115884
P/2019 A8 (PANSTARRS),e,2.2417,116.2461,64.4704,4.194054,0.1147501,0.26778575,149.6089,04/08.0/2022,2000,g 16.0,4.0
# From MPC118842
C/2019 A9 (PANSTARRS),e,84.1874,278.3874,237.9340,39.25704,0.0040071,0.96354878,3.9546,04/08.0/2022,2000,g 15.0,4.0
# From MPC114606
C/2019 B1 (Africano),e,123.3741,290.4186,174.8026,139.2902,0.0005995,0.98853709,0.0000,03/19.2384/2019,2000,g 16.0,4.0
# From MPC115885
P/2019 B2 (Groeller),e,17.0112,175.7618,0.9086,3.897011,0.1281170,0.36667929,132.7495,04/08.0/2022,2000,g 14.5,4.0
# From MPEC 2022-C56
C/2019 B3 (PANSTARRS),h,01/20.3986/2021,66.5353,358.4367,263.9444,1.001262,6.823725,2000,5.5,4.0
# From MPEC 2021-P47
C/2019 C1 (ATLAS),e,36.0410,212.3865,319.1416,675.1435,0.0000562,0.99025436,0.0000,05/04.9434/2020,2000,g 10.0,4.0
# From MPC118842
C/2019 D1 (Flewelling),e,34.0429,231.6921,70.6044,143.1381,0.0005755,0.98894856,0.0000,05/11.7166/2019,2000,g 13.0,4.0
# From MPEC 2022-GA9
C/2019 E3 (ATLAS),h,11/14.0066/2023,84.2976,347.2542,280.6535,1.001741,10.313587,2000,2.5,4.0
# From MPEC 2022-F14
C/2019 F1 (ATLAS-Africano),h,06/22.9999/2021,54.1779,38.7111,251.1696,1.003746,3.596215,2000,5.5,4.0
# From MPEC 2021-P47
C/2019 F2 (ATLAS),e,19.2300,175.5593,11.5325,16.66805,0.0144836,0.86533415,13.6505,04/08.0/2022,2000,g 12.0,4.0
# From MPEC 2021-P47
A/2019 G2,e,159.2084,208.1535,82.6195,538.1129,0.0000790,0.99574103,0.0000,12/09.5554/2019,2000,g 16.5,2.0
# From MPEC 2021-N06
A/2019 G4,h,09/16.1035/2018,138.3774,130.4627,287.8439,1.002052,5.854546,2000,13.0,2.0
# From MPC114607
P/2019 GG21 (PANSTARRS),e,6.0844,340.5680,208.6154,7.473106,0.0482450,0.47226229,51.2965,04/08.0/2022,2000,g 12.0,4.0
# From MPC115885
C/2019 H1 (NEOWISE),e,104.5253,269.2294,19.3477,241.5267,0.0002626,0.99235606,0.0000,04/27.9347/2019,2000,g 15.5,4.0
# From MPC118842
C/2019 J1 (Lemmon),e,24.5481,98.1157,167.7891,68.93178,0.0017222,0.96398653,1.8863,04/08.0/2022,2000,g 12.0,4.0
# From MPEC 2021-R75
C/2019 J2 (Palomar),e,105.2143,25.5363,98.7304,160.8048,0.0004833,0.98927083,0.0000,07/19.8937/2019,2000,g 13.0,4.0
# From MPC117071
C/2019 J3 (ATLAS),h,08/02.1803/2019,131.3910,270.5600,16.6201,1.000637,2.374098,2000,13.5,4.0
# From MPC117071
C/2019 JU6 (ATLAS),e,148.3264,21.7723,94.9593,362.9740,0.0001425,0.99436213,0.0000,06/01.1638/2019,2000,g 14.5,4.0
# From MPEC 2021-P47
C/2019 K1 (ATLAS),h,02/12.9754/2020,87.1028,73.3662,265.7145,1.000015,2.012691,2000,10.0,4.0
# From MPC119997
C/2019 K4 (Ye),e,105.2970,180.1438,139.8042,1316,0.0000207,0.99828008,0.0000,06/15.9903/2019,2000,g 12.5,4.0
# From MPEC 2021-P47
C/2019 K5 (Young),e,15.3186,177.1312,175.0589,163.8521,0.0004699,0.98756405,0.0000,06/23.0457/2019,2000,g 13.0,4.0
# From MPEC 2021-P47
C/2019 K6 (PANSTARRS),e,132.3837,42.9698,187.6340,1905,0.0000119,0.99793776,0.0000,05/20.2491/2020,2000,g 11.5,4.0
# From MPEC 2022-GA9
C/2019 K7 (Smith),h,06/17.3196/2020,103.5420,307.9371,27.3623,1.000388,4.476939,2000,6.0,4.0
# From MPEC 2021-R75
C/2019 K8 (ATLAS),e,93.1934,291.0451,85.3928,2610,0.0000074,0.99877617,0.0000,07/21.6979/2019,2000,g 11.5,4.0
# From MPC118095
C/2019 L1 (PANSTARRS),e,9.9872,254.4254,50.0135,9.841954,0.0319214,0.70586783,30.9865,04/08.0/2022,2000,g 13.5,4.0
# From MPC115886
C/2019 L2 (NEOWISE),e,152.2030,12.5555,18.7919,24.91874,0.0079235,0.93483841,8.7343,04/08.0/2022,2000,g 16.0,4.0
# From MPEC 2021-Y10
P/2019 LD2 (ATLAS),e,11.6193,179.5898,121.8484,5.243452,0.0820877,0.12801505,61.1571,04/08.0/2022,2000,g  8.5,4.0
# From MPEC 2022-GA9
